{
    "links": {
        "self": "http://www.neowsapp.com/rest/v1/neo/3662585?api_key=iIulBulltgU6a56xZRHN4H3l9WmuAYTsLGpBGhQ2"
    },
    "id": "3662585",
    "neo_reference_id": "3662585",
    "name": "(2014 DS22)",
    "designation": "2014 DS22",
    "nasa_jpl_url": "http://ssd.jpl.nasa.gov/sbdb.cgi?sstr=3662585",
    "absolute_magnitude_h": 22.7,
    "estimated_diameter": {
        "kilometers": {
            "estimated_diameter_min": 0.0766575574,
            "estimated_diameter_max": 0.1714115092
        },
        "meters": {
            "estimated_diameter_min": 76.6575573531,
            "estimated_diameter_max": 171.4115092306
        },
        "miles": {
            "estimated_diameter_min": 0.0476327831,
            "estimated_diameter_max": 0.1065101409
        },
        "feet": {
            "estimated_diameter_min": 251.5011804664,
            "estimated_diameter_max": 562.3737359442
        }
    },
    "is_potentially_hazardous_asteroid": false,
    "close_approach_data": [
        {
            "close_approach_date": "1979-02-11",
            "close_approach_date_full": "1979-Feb-11 01:20",
            "epoch_date_close_approach": 287544000000,
            "relative_velocity": {
                "kilometers_per_second": "19.6939373577",
                "kilometers_per_hour": "70898.17448786",
                "miles_per_hour": "44053.3684755261"
            },
            "miss_distance": {
                "astronomical": "0.2967404721",
                "lunar": "115.4320436469",
                "kilometers": "44391742.568954427",
                "miles": "27583749.7568760126"
            },
            "orbiting_body": "Earth"
        },
        {
            "close_approach_date": "1983-10-30",
            "close_approach_date_full": "1983-Oct-30 12:35",
            "epoch_date_close_approach": 436365300000,
            "relative_velocity": {
                "kilometers_per_second": "2.3983466328",
                "kilometers_per_hour": "8634.0478780077",
                "miles_per_hour": "5364.8615828654"
            },
            "miss_distance": {
                "astronomical": "1.9205546183",
                "lunar": "747.0957465187",
                "kilometers": "287310880.116343021",
                "miles": "178526702.5110988498"
            },
            "orbiting_body": "Juptr"
        },
        {
            "close_approach_date": "2013-12-23",
            "close_approach_date_full": "2013-Dec-23 08:51",
            "epoch_date_close_approach": 1387788660000,
            "relative_velocity": {
                "kilometers_per_second": "9.2497881004",
                "kilometers_per_hour": "33299.2371614478",
                "miles_per_hour": "20690.8510017896"
            },
            "miss_distance": {
                "astronomical": "0.1051091999",
                "lunar": "40.8874787611",
                "kilometers": "15724112.422444213",
                "miles": "9770510.3947196194"
            },
            "orbiting_body": "Earth"
        },
        {
            "close_approach_date": "2016-11-23",
            "close_approach_date_full": "2016-Nov-23 16:42",
            "epoch_date_close_approach": 1479919320000,
            "relative_velocity": {
                "kilometers_per_second": "14.747444499",
                "kilometers_per_hour": "53090.8001965606",
                "miles_per_hour": "32988.5585999129"
            },
            "miss_distance": {
                "astronomical": "0.0266208199",
                "lunar": "10.3554989411",
                "kilometers": "3982417.954693613",
                "miles": "2474559.7701853394"
            },
            "orbiting_body": "Mars"
        },
        {
            "close_approach_date": "2087-01-28",
            "close_approach_date_full": "2087-Jan-28 19:07",
            "epoch_date_close_approach": 3694619220000,
            "relative_velocity": {
                "kilometers_per_second": "13.2714319441",
                "kilometers_per_hour": "47777.1549988964",
                "miles_per_hour": "29686.8661158421"
            },
            "miss_distance": {
                "astronomical": "0.1146946653",
                "lunar": "44.6162248017",
                "kilometers": "17158077.629242911",
                "miles": "10661535.0568617318"
            },
            "orbiting_body": "Earth"
        }
    ],
    "orbital_data": {
        "orbit_id": "7",
        "orbit_determination_date": "2019-03-24 06:53:55",
        "first_observation_date": "2014-02-20",
        "last_observation_date": "2014-03-12",
        "data_arc_in_days": 20,
        "observations_used": 30,
        "orbit_uncertainty": "7",
        "minimum_orbit_intersection": ".0261334",
        "jupiter_tisserand_invariant": "3.454",
        "epoch_osculation": "2459000.5",
        "eccentricity": ".5821331875757724",
        "semi_major_axis": "2.158094721194302",
        "inclination": "5.021956556843873",
        "ascending_node_longitude": "18.25741359160541",
        "orbital_period": "1157.988324276527",
        "perihelion_distance": ".9017961620550152",
        "perihelion_argument": "59.59657060512671",
        "aphelion_distance": "3.414393280333589",
        "perihelion_time": "2458959.276861687734",
        "mean_anomaly": "12.81561262863995",
        "mean_motion": ".3108839635537053",
        "equinox": "J2000",
        "orbit_class": {
            "orbit_class_type": "APO",
            "orbit_class_description": "Near-Earth asteroid orbits which cross the Earth’s orbit similar to that of 1862 Apollo",
            "orbit_class_range": "a (semi-major axis) > 1.0 AU; q (perihelion) < 1.017 AU"
        }
    },
    "is_sentry_object": false
}